     3.02           N: GNSS NAV DATA    G: GPS              RINEX VERSION / TYPE
cnvtToRINEX 2.25.0  convertToRINEX OPR  23-Jan-15 22:34 UTC PGM / RUN BY / DATE 
----------------------------------------------------------- COMMENT
GPSA    .2794D-07  -.7451D-08  -.1192D-06   .1192D-06       IONOSPHERIC CORR
GPSB    .1372D+06  -.4915D+05  -.1311D+06  -.2621D+06       IONOSPHERIC CORR
GPUT   .1862645149D-08  .444089210D-14  61440   25        0 TIME SYSTEM CORR
    16     0     0     0                                    LEAP SECONDS
                                                            END OF HEADER
G05 2014 10 31 22 00 00 -.323241576552D-03  .432009983342D-11  .000000000000D+00
      .460000000000D+02  .450625000000D+02  .515592905085D-08  .232336866828D+01
      .239349901676D-05  .393592659384D-02  .857748091221D-05  .515370770454D+04
      .511200000000D+06 -.726431608200D-07  .286556080156D+01  .558793544769D-08
      .947181540862D+00  .207687500000D+03  .378986032872D+00 -.829105964163D-08
      .306798493674D-09  .100000000000D+01  .181600000000D+04  .000000000000D+00
      .240000000000D+01  .000000000000D+00 -.107102096081D-07  .460000000000D+02
      .504018000000D+06  .400000000000D+01
G15 2014 10 31 21 59 44 -.211907085031D-03 -.227373675443D-11  .000000000000D+00
      .100000000000D+01  .650000000000D+01  .553523056457D-08  .735133045745D+00
      .512227416039D-06  .676390877925D-02  .558421015739D-05  .515378810883D+04
      .511184000000D+06  .484287738800D-07 -.240708821497D+01  .931322574615D-07
      .935325779182D+00  .254187500000D+03  .297749903736D+00 -.869429072354D-08
     -.385016037463D-09  .100000000000D+01  .181600000000D+04  .000000000000D+00
      .240000000000D+01  .000000000000D+00 -.102445483208D-07  .100000000000D+01
      .504078000000D+06  .400000000000D+01
G26 2014 10 31 22 00 00 -.107425730675D-03 -.129602995003D-10  .000000000000D+00
      .790000000000D+02  .553125000000D+01  .465662253845D-08  .254219601564D+00
      .456348061562D-06  .212836855790D-01  .710971653461D-05  .515368098259D+04
      .511200000000D+06 -.249594449997D-06 -.226618362774D+01  .104308128357D-06
      .973467369943D+00  .251687500000D+03  .129601292028D+01 -.852606943073D-08
     -.442875590403D-09  .100000000000D+01  .181600000000D+04  .000000000000D+00
      .240000000000D+01  .000000000000D+00 -.651925802231D-08  .790000000000D+02
      .504726000000D+06  .400000000000D+01
G29 2014 10 31 21 59 44  .570275355130D-03  .238742359215D-11  .000000000000D+00
      .140000000000D+02 -.669062500000D+02  .446232873105D-08 -.202455447555D+01
     -.343285501003D-05  .111567648128D-02  .534951686859D-05  .515360963821D+04
      .511184000000D+06  .130385160446D-07  .828909860177D+00  .651925802231D-07
      .970954201031D+00  .281312500000D+03 -.843324675195D+00 -.825820113008D-08
     -.628597612185D-10  .100000000000D+01  .181600000000D+04  .000000000000D+00
      .240000000000D+01  .000000000000D+00 -.977888703346D-08  .140000000000D+02
      .504696000000D+06  .400000000000D+01
G18 2014 10 31 22 00 00  .355169642717D-03  .261479726760D-11  .000000000000D+00
      .540000000000D+02  .452187500000D+02  .543844081860D-08  .304405613238D+01
      .225566327572D-05  .154821694596D-01  .832416117191D-05  .515373871994D+04
      .511200000000D+06  .128522515297D-06  .285689973698D+01 -.283122062683D-06
      .925735332981D+00  .196718750000D+03 -.200611742579D+01 -.824962934446D-08
      .270725562521D-09  .100000000000D+01  .181600000000D+04  .000000000000D+00
      .240000000000D+01  .000000000000D+00 -.111758708954D-07  .540000000000D+02
      .504102000000D+06  .400000000000D+01
G15 2014 11 01 00 00 00 -.211922917515D-03 -.227373675443D-11  .000000000000D+00
      .200000000000D+01  .853125000000D+01  .555094550488D-08  .178742633755D+01
      .612810254097D-06  .676437851507D-02  .627897679806D-05  .515379031181D+04
      .518400000000D+06 -.614672899246D-07 -.240715138523D+01  .204890966415D-06
      .935323245407D+00  .246031250000D+03  .297908030551D+00 -.866321800066D-08
     -.287869133762D-09  .100000000000D+01  .181600000000D+04  .000000000000D+00
      .240000000000D+01  .000000000000D+00 -.102445483208D-07  .200000000000D+01
      .511218000000D+06  .400000000000D+01
G29 2014 10 31 23 59 44  .570292584598D-03  .238742359215D-11  .000000000000D+00
      .150000000000D+02 -.655000000000D+02  .446304304651D-08 -.974156083980D+00
     -.328384339809D-05  .111600768287D-02  .560097396374D-05  .515361006355D+04
      .518384000000D+06 -.465661287308D-07  .828850598829D+00  .614672899246D-07
      .970953738749D+00  .276562500000D+03 -.843503205329D+00 -.823855745470D-08
     -.942896418278D-10  .100000000000D+01  .181600000000D+04  .000000000000D+00
      .240000000000D+01  .000000000000D+00 -.977888703346D-08  .150000000000D+02
      .511878000000D+06  .400000000000D+01
G22 2014 11 01 00 00 00  .282497145236D-03  .352429196937D-11  .000000000000D+00
      .820000000000D+02  .474687500000D+02  .553344477590D-08 -.272134675716D+01
      .232085585594D-05  .731398281641D-02  .854022800922D-05  .515371842003D+04
      .518400000000D+06  .154599547386D-06  .285841937824D+01 -.856816768646D-07
      .923531287437D+00  .193593750000D+03 -.205863649205D+01 -.843963725905D-08
      .375372778640D-09  .100000000000D+01  .181600000000D+04  .000000000000D+00
      .340000000000D+01  .000000000000D+00 -.176951289177D-07  .820000000000D+02
      .513048000000D+06  .400000000000D+01
G21 2014 10 31 22 00 00 -.392403453588D-03 -.204636307899D-11  .000000000000D+00
      .500000000000D+02 -.602187500000D+02  .489198948528D-08 -.228266443711D+01
     -.327080488205D-05  .217226238456D-01  .104680657387D-04  .515367676163D+04
      .511200000000D+06  .292435288429D-06  .181256860503D+01 -.316649675369D-07
      .932654294738D+00  .153187500000D+03 -.198330897493D+01 -.790568644643D-08
      .242867259253D-09  .100000000000D+01  .181600000000D+04  .000000000000D+00
      .240000000000D+01  .000000000000D+00 -.116415321827D-07  .500000000000D+02
      .504018000000D+06  .400000000000D+01
G21 2014 11 01 00 00 00 -.392418354750D-03 -.204636307899D-11  .000000000000D+00
      .510000000000D+02 -.445937500000D+02  .507878298027D-08 -.123258409417D+01
     -.194087624550D-05  .217230537673D-01  .110063701868D-04  .515367248917D+04
      .518400000000D+06  .305473804474D-06  .181251203984D+01  .525265932083D-06
      .932653732977D+00  .147750000000D+03 -.198320677986D+01 -.834820487910D-08
      .378587198248D-10  .100000000000D+01  .181600000000D+04  .000000000000D+00
      .240000000000D+01  .000000000000D+00 -.116415321827D-07  .510000000000D+02
      .514548000000D+06  .400000000000D+01
G18 2014 11 01 00 00 00  .355188269168D-03  .261479726760D-11  .000000000000D+00
      .550000000000D+02  .499687500000D+02  .545201281250D-08 -.218901218284D+01
      .251829624176D-05  .154824404744D-01  .808015465736D-05  .515373790359D+04
      .518400000000D+06  .232830643654D-06  .285683910195D+01 -.335276126862D-07
      .925738078878D+00  .200125000000D+03 -.200608605351D+01 -.827891627867D-08
      .471091051405D-09  .100000000000D+01  .181600000000D+04  .000000000000D+00
      .240000000000D+01  .000000000000D+00 -.111758708954D-07  .550000000000D+02
      .516576000000D+06  .400000000000D+01
G27 2014 11 01 00 00 00  .264761038125D-04  .284217094304D-11  .000000000000D+00
      .840000000000D+02 -.538750000000D+02  .461483508355D-08  .246202889487D+01
     -.278651714325D-05  .153725733981D-02  .469200313091D-05  .515368000031D+04
      .518400000000D+06  .614672899246D-07  .773151732370D+00  .242143869400D-07
      .965022548057D+00  .290687500000D+03  .308294517773D+00 -.832391815317D-08
     -.564309220030D-10  .100000000000D+01  .181600000000D+04  .000000000000D+00
      .240000000000D+01  .000000000000D+00  .139698386192D-08  .840000000000D+02
      .518208000000D+06  .400000000000D+01
G24 2014 11 01 00 00 00 -.377353280783D-04 -.568434188608D-12  .000000000000D+00
      .770000000000D+02  .237500000000D+02  .456269005435D-08  .709409860808D+00
      .122562050819D-05  .242817541584D-02  .976026058197D-05  .515370971680D+04
      .518400000000D+06  .242143869400D-07 -.133071385206D+01 -.745058059692D-08
      .955270613255D+00  .184281250000D+03  .207058193353D+00 -.817855495536D-08
     -.323584907182D-09  .100000000000D+01  .181600000000D+04  .000000000000D+00
      .240000000000D+01  .000000000000D+00  .279396772385D-08  .770000000000D+02
      .518262000000D+06  .400000000000D+01
